ONEWEB-0319             
1 49105U 21075AG  24200.40890722  .00000073  00000+0  15494-3 0  9999
2 49105  87.9189 145.0200 0002284  94.8925 265.2467 13.17648157142572
ONEWEB-0323             
1 49106U 21075AH  24200.32708255  .00007322  00000+0  20312-1 0  9997
2 49106  87.8953 129.8301 0002272  87.7292 272.4096 13.12410697143882
ONEWEB-0329             
1 49107U 21075AJ  24199.88544387  .00000002  00000+0 -27073-4 0  9993
2 49107  87.9189 145.1279 0002001  87.1493 272.9868 13.17649329141495
ONEWEB-0330             
1 49108U 21075AK  24199.88704902  .00000005  00000+0 -19226-4 0  9999
2 49108  87.9189 145.1282 0001894  86.7581 273.3767 13.17647479141534
ONEWEB-0292             
1 49186U 21083A   24200.15868196  .00000219  00000+0  56374-3 0  9993
2 49186  87.8925  99.3936 0002001  78.7856 281.3498 13.13469866140458
ONEWEB-0303             
1 49187U 21083B   24200.48235524 -.00000233  00000+0 -62270-3 0  9993
2 49187  87.9151 114.5541 0002144  82.4964 277.6412 13.18686260139178
ONEWEB-0306             
1 49188U 21083C   24199.78998963  .00000030  00000+0  43838-4 0  9990
2 49188  87.9151 114.6790 0001844  73.8344 286.2991 13.18686774137848
ONEWEB-0307             
1 49189U 21083D   24200.15312519  .00000066  00000+0  14644-3 0  9993
2 49189  87.8925  99.3950 0001492  74.1651 285.9643 13.13471854140455
